satname,norad_id,inclination_deg,eccentricity,mean_motion_rev_per_day,perigee_km,apogee_km,l1,l2
STARLINK-1452,45669,53.0342,0.0005483,15.39860109,442.78065707366204,450.26457881069746,1 45669U 20035N   26037.64355739  .00114809  00000+0  28137-2 0  9995,2 45669  53.0342 169.0760 0005483 279.3650  80.6734 15.39860109314570
STARLINK-1453,45670,53.0499,0.0005093,15.46141965,424.5583212672336,431.49107757426464,1 45670U 20035P   26037.91671296  .00114455  00000+0  22716-2 0  9990,2 45670  53.0499 160.8293 0005093 268.2389 349.9329 15.46141965  5532
STARLINK-1454,45671,53.0532,0.0003365,15.44895383,429.39398057166454,433.97699110463236,1 45671U 20035Q   26037.91671296  .00198382  00000+0  40588-2 0  9999,2 45671  53.0532 200.0431 0003365 292.6708 229.4819 15.44895383  5677
STARLINK-1456,45673,53.0529,0.0003998,15.43238521,433.83423664989914,439.2832673732082,1 45673U 20035S   26037.74526109  .00120116  00000+0  26292-2 0  9990,2 45673  53.0529 194.2272 0003998 182.8780 177.2203 15.43238521314230
STARLINK-1457,45674,53.0479,0.0005541,15.69242494,357.3307139879944,364.79909753996253,1 45674U 20035T   26037.91671296  .00186465  00000+0  15380-2 0  9993,2 45674  53.0479 175.5671 0005541 321.9687 253.6157 15.69242494  5829
STARLINK-1458,45675,53.0532,0.0001445,15.38535378,449.45283517166627,451.4262937988033,1 45675U 20035U   26037.91671296  .00162012  00000+0  41179-2 0  9991,2 45675  53.0532 201.1509 0001445 324.5492 292.2459 15.38535378  5587
STARLINK-1460,45676,53.0556,0.0001315,15.06402073,546.2945219992389,548.1158869990222,1 45676U 20035V   26037.78359581 -.00001828  00000+0 -10383-3 0  9990,2 45676  53.0556 205.3610 0001315  92.6946 267.4193 15.06402073314038
STARLINK-1392,45677,53.0553,0.0001441,15.06388084,546.2501310129173,548.2460269926851,1 45677U 20035W   26037.72831957  .00002766  00000+0  20456-3 0  9999,2 45677  53.0553 205.6097 0001441  85.8190 274.2964 15.06388084314063
STARLINK-1394,45679,53.0535,0.0005108,15.42063364,436.5377715327104,443.5032012207939,1 45679U 20035Y   26037.71776723  .00022873  00000+0  53501-3 0  9997,2 45679  53.0535 184.3143 0005108 177.1982 182.9052 15.42063364314365
STARLINK-1402,45685,53.0495,0.0004995,15.40230731,442.0194025219271,448.83614373028104,1 45685U 20035AE  26037.91671296  .00102411  00000+0  24847-2 0  9992,2 45685  53.0495 169.3887 0004995 172.2719  48.2255 15.40230731  5876
STARLINK-1404,45686,53.1574,0.0001239,15.29343396,476.92448093747953,478.62337566551287,1 45686U 20035AF  26037.66797906  .00001472  00000+0  63344-4 0  9994,2 45686  53.1574 193.7553 0001239  98.6813 261.4328 15.29343396314222
STARLINK-1413,45689,53.1614,0.0001678,15.30190821,474.09247931966,476.3924734719394,1 45689U 20035AJ  26037.74297605 -.00000603  00000+0 -82295-5 0  9991,2 45689  53.1614 193.3214 0001678  61.5927 298.5242 15.30190821314155
STARLINK-1417,45693,53.0526,0.0006097,15.10686739,529.8900041875486,538.3187913479878,1 45693U 20035AN  26037.72079928  .00043390  00000+0  25919-2 0  9995,2 45693  53.0526 194.4682 0006097 145.7338 214.4048 15.10686739314217
STARLINK-1420,45695,53.0543,0.0001954,15.47430644,422.91627052335843,425.5746415871845,1 45695U 20035AQ  26037.65732567  .00111341  00000+0  21155-2 0  9994,2 45695  53.0543 171.2414 0001954   0.9703 359.1307 15.47430644314542
STARLINK-1422,45696,53.158,0.0001268,15.29330284,476.94378072962445,478.6824496788413,1 45696U 20035AR  26037.74823222  .00012168  00000+0  43364-3 0  9998,2 45696  53.1580 193.2801 0001268  82.7831 277.3313 15.29330284314230
STARLINK-1351,45697,53.057,0.0001224,15.43715124,434.3220972641129,435.98999140136493,1 45697U 20035AS  26036.66767833  .00025737  00000+0  56849-3 0  9992,2 45697  53.0570 175.2122 0001224  19.1450 340.9601 15.43715124314400
STARLINK-1398,45699,53.0419,0.0004746,15.7847081,331.58674343301936,337.9586373111197,1 45699U 20035AU  26037.83335647  .00142735  00000+0  79672-3 0  9995,2 45699  53.0419  95.4671 0004746 342.0437  37.6762 15.78470810  5954
STARLINK-1400,45700,53.0535,0.0003377,15.44987266,429.115902862889,433.71507461378224,1 45700U 20035AV  26037.83335647  .00158015  00000+0  32415-2 0  9999,2 45700  53.0535 170.4853 0003377 341.6424  95.4416 15.44987266  5771
STARLINK-1403,45701,53.0558,0.000131,15.06382377,546.3583426849409,548.1727981583917,1 45701U 20035AW  26037.62419395  .00000694  00000+0  65500-4 0  9992,2 45701  53.0558 176.0780 0001310  89.3467 270.7672 15.06382377314467
STARLINK-1407,45703,53.0363,0.0011584,15.54530567,395.66168790961547,411.3734251862252,1 45703U 20035AY  26037.50020392  .00046377  00000+0  69255-3 0  9994,2 45703  53.0363 107.0269 0011584 353.4548   6.6308 15.54530567315437
STARLINK-1411,45706,53.0463,0.0003595,15.56472489,395.439683869944,400.3116369727868,1 45706U 20035BB  26037.60222119  .00091122  00000+0  12565-2 0  9998,2 45706  53.0463 132.6593 0003595   3.6457 356.4579 15.56472489315077
STARLINK-1423,45710,53.0535,0.0002286,15.46860203,424.36230515272837,427.473118967082,1 45710U 20035BF  26037.83335647  .00176865  00000+0  33935-2 0  9991,2 45710  53.0535 170.0047 0002286 356.5151  27.3206 15.46860203  5722
STARLINK-1433,45711,53.0532,0.0002853,15.48941635,417.8814676344955,421.76038242651885,1 45711U 20035BG  26037.83335647  .00169391  00000+0  30265-2 0  9991,2 45711  53.0532 169.5081 0002853 351.1216  24.4654 15.48941635  5674
STARLINK-1434,45712,53.0507,0.0001473,15.23586179,494.02173076326835,496.04656698372673,1 45712U 20035BH  26037.63728358  .00091213  00000+0  37306-2 0  9995,2 45712  53.0507 163.5120 0001473 359.1998   0.8995 15.23586179314655
STARLINK-1465,45731,53.0552,0.0001763,15.44419346,431.8839251289937,434.285561915759,1 45731U 20038B   26036.34935069  .00160146  00000+0  33484-2 0  9990,2 45731  53.0552  17.7072 0001763 119.2523 240.8659 15.44419346311376
STARLINK-1471,45735,53.0471,0.0004049,15.46883089,423.0956670516325,428.605536211433,1 45735U 20038F   26037.83335647  .00102090  00000+0  19795-2 0  9998,2 45735  53.0471 289.6447 0004049 123.7746 148.3854 15.46883089  5643
STARLINK-1474,45738,53.0226,0.0005337,15.99957513,270.9859417400294,278.08700540572136,1 45738U 20038J   26037.83335647  .00427912  89521-4  82130-3 0  9998,2 45738  53.0226 221.1832 0005337 258.4678 203.4723 15.99957513  5891
STARLINK-1480,45741,53.0546,0.0010932,15.43365425,428.73576868316013,443.6346027099671,1 45741U 20038M   26037.83335647  .00143425  00000+0  31098-2 0  9992,2 45741  53.0546   4.3594 0010932  71.1351 337.4929 15.43365425  5868
STARLINK-1500,45744,53.0393,0.0004348,15.32945774,464.0526447644161,470.0052010509771,1 45744U 20038Q   26036.22833771  .00034276  00000+0  10685-2 0  9990,2 45744  53.0393 344.8018 0004348 116.2826 243.8622 15.32945774311832
STARLINK-1504,45746,53.0235,0.0004406,15.5105795,410.64348973801134,416.62840005705493,1 45746U 20038S   26037.84215043  .00036174  00000+0  61602-3 0  9992,2 45746  53.0235 290.7578 0004406 108.3183 251.8305 15.51057950312729
STARLINK-1506,45747,53.0756,0.0004853,15.25311209,486.51805727293413,493.184126514926,1 45747U 20038T   26037.28155471  .00012751  00000+0  51209-3 0  9996,2 45747  53.0756 347.5289 0004853 130.6149 229.5272 15.25311209311897
STARLINK-1464,45751,53.055,0.0004289,15.40553476,441.5484999489481,447.40093628074555,1 45751U 20038X   26037.83335647  .00122805  00000+0  29384-2 0  9997,2 45751  53.0550 350.9734 0004289 101.1007 156.5737 15.40553476  5724
STARLINK-1477,45754,53.0542,8.72e-05,15.12499205,527.9789528401379,529.1834844974737,1 45754U 20038AA  26037.26432692  .00045256  00000+0  25704-2 0  9991,2 45754  53.0542 355.5812 0000872  58.1076 302.0001 15.12499205311772
STARLINK-1478,45755,53.0559,0.0007481,15.49152165,414.11992388397994,424.2901070074895,1 45755U 20038AB  26037.83335647  .00140253  00000+0  24962-2 0  9995,2 45755  53.0559 346.3782 0007481 100.6328 158.8271 15.49152165  5846
STARLINK-1484,45756,53.0046,0.0002633,15.84829316,315.0426061151584,318.5681627748072,1 45756U 20038AC  26037.83335647  .00222620  00000+0  91559-3 0  9992,2 45756  53.0046 214.4204 0002633 237.5691 144.2703 15.84829316  5970
STARLINK-1493,45759,53.0555,0.0001628,15.42571264,437.41404150602284,439.63354626051114,1 45759U 20038AF  26037.83335647  .00144484  00000+0  32226-2 0  9991,2 45759  53.0555 351.5959 0001628 116.4949  63.6282 15.42571264  5721
STARLINK-1494,45760,53.05,0.0002053,15.67980961,363.2948442147026,366.063444523581,1 45760U 20038AG  26037.12641046  .00092887  00000+0  81900-3 0  9991,2 45760  53.0500 307.8229 0002053 151.3400 208.7729 15.67980961312432
STARLINK-1502,45764,53.0552,0.000165,15.34857861,460.21420497932377,462.47123328663656,1 45764U 20038AL  26037.83335647  .00695748  00000+0  18757-1 0  9993,2 45764  53.0552 352.6621 0001650  93.9985  84.6507 15.34857861  5821
STARLINK-1470,45772,53.0514,0.0002067,15.25182523,488.81771397306966,491.6570999529067,1 45772U 20038AU  26036.98474147  .00015737  00000+0  63115-3 0  9990,2 45772  53.0514 321.1290 0002067 102.8323 257.2905 15.25182523312232
STARLINK-1482,45773,53.1418,9.06e-05,15.26136911,486.75161302071047,487.9956435465565,1 45773U 20038AV  26037.83335647  .01447266  00000+0  50689-1 0  9994,2 45773  53.1418 334.2506 0000906  79.6045 224.4841 15.26136911  5677
STARLINK-1496,45780,53.0565,0.0009309,15.42814661,431.4618744377958,444.1517986726931,1 45780U 20038BC  26037.20941190  .00093872  00000+0  20910-2 0  9993,2 45780  53.0565 327.7988 0009309  95.4302 264.7765 15.42814661312144
STARLINK-1497,45781,53.02,0.0006083,16.1062239,241.10752454850444,249.1653990421246,1 45781U 20038BD  26037.81863997  .01258692  10334-2  12647-2 0  9995,2 45781  53.0200 233.0398 0006083 249.9763 110.0616 16.10622390313532
STARLINK-1513,45786,53.1402,0.0001491,15.26090517,486.4891027573076,488.5364395190618,1 45786U 20038BJ  26037.83335647  .01621325  00000+0  56262-1 0  9991,2 45786  53.1402 334.3862 0001491  97.3341 152.8038 15.26090517  5770
